NORAD_CAT_ID,OBJECT_NAME,OBJECT_TYPE,EPOCH,MEAN_MOTION,ECCENTRICITY,INCLINATION,RA_OF_ASC_NODE,ARG_OF_PERICENTER,MEAN_ANOMALY,BSTAR,MEAN_MOTION_DOT,MEAN_MOTION_DDOT,TLE_LINE0,TLE_LINE1,TLE_LINE2,SEMIMAJOR_AXIS,PERIOD,APOGEE,PERIGEE,DECAYED
50837.0,STARLINK-3318,PAYLOAD,2022-11-20 02:19:07,15.08837142,0.0002446,53.2156,181.2563,37.4206,322.6957,0.00026511,3.933e-05,0.0,0 STARLINK-3318,1 50837U 22001AL  22324.09661679  .00003933  00000-0  26511-3 0  9991,2 50837  53.2156 181.2563 0002446  37.4206 322.6957 15.08837142 49603,6917.889,95.438,541.446,538.062,0.0
50837.0,STARLINK-3318,PAYLOAD,2022-11-20 21:23:45,15.08831621,0.0002261,53.2152,177.6877,41.3368,318.7795,-9.9282e-05,-1.868e-05,0.0,0 STARLINK-3318,1 50837U 22001AL  22324.89149656 -.00001868  00000-0 -99282-4 0  9998,2 50837  53.2152 177.6877 0002261  41.3368 318.7795 15.08831621 48526,6917.906,95.438,541.335,538.207,0.0
50837.0,STARLINK-3318,PAYLOAD,2022-11-21 02:09:55,15.08831734,0.000225,53.2161,176.7956,41.1852,318.9309,-6.372100000000001e-05,-1.302e-05,0.0,0 STARLINK-3318,1 50837U 22001AL  22325.09022210 -.00001302  00000-0 -63721-4 0  9999,2 50837  53.2161 176.7956 0002250  41.1852 318.9309 15.08831734 49752,6917.906,95.438,541.327,538.214,0.0
50837.0,STARLINK-3318,PAYLOAD,2022-11-21 13:17:37,15.088332800000002,0.0002305,53.2162,174.71400000000003,41.882,318.2348,-5.7258e-05,-1.199e-05,0.0,0 STARLINK-3318,1 50837U 22001AL  22325.55390300 -.00001199  00000-0 -57258-4 0  9990,2 50837  53.2162 174.7140 0002305  41.8820 318.2348 15.08833280 48628,6917.901,95.438,541.361,538.1709999999998,0.0
50837.0,STARLINK-3318,PAYLOAD,2022-11-21 16:28:23,15.08844982,0.0002287,53.216,174.1193,41.7729,318.3437,-0.00016865,-2.972e-05,0.0,0 STARLINK-3318,1 50837U 22001AL  22325.68638047 -.00002972  00000-0 -16865-3 0  9995,2 50837  53.2160 174.1193 0002287  41.7729 318.3437 15.08844982 49840,6917.865,95.437,541.312,538.148,0.0
50837.0,STARLINK-3318,PAYLOAD,2022-11-21 21:14:32,15.08849038,0.0002295,53.216,173.2273,40.9808,319.1356,-0.00019988,-3.469e-05,0.0,0 STARLINK-3318,1 50837U 22001AL  22325.88509849 -.00003469  00000-0 -19988-3 0  9995,2 50837  53.2160 173.2273 0002295  40.9808 319.1356 15.08849038 48673,6917.853,95.437,541.305,538.13,0.0
50837.0,STARLINK-3318,PAYLOAD,2022-11-22 00:25:18,15.08835329,0.0002276,53.2161,172.6326,42.3769,317.7398,7.763400000000001e-06,-1.65e-06,0.0,0 STARLINK-3318,1 50837U 22001AL  22326.01758060 -.00000165  00000-0  77634-5 0  9995,2 50837  53.2161 172.6326 0002276  42.3769 317.7398 15.08835329 48697,6917.895,95.438,541.3340000000002,538.185,0.0
50837.0,STARLINK-3318,PAYLOAD,2022-11-22 17:54:33,15.08830893,0.0002316,53.2162,169.3617,44.1954,315.9223,0.000131,1.797e-05,0.0,0 STARLINK-3318,1 50837U 22001AL  22326.74622201  .00001797  00000-0  13100-3 0  9999,2 50837  53.2162 169.3617 0002316  44.1954 315.9223 15.08830893 50001,6917.908,95.438,541.375,538.1709999999998,0.0
50837.0,STARLINK-3318,PAYLOAD,2022-11-22 21:05:19,15.08831838,0.0002331,53.2162,168.767,44.476000000000006,315.6419,0.00013502,1.861e-05,0.0,0 STARLINK-3318,1 50837U 22001AL  22326.87870189  .00001861  00000-0  13502-3 0  9991,2 50837  53.2162 168.7670 0002331  44.4760 315.6419 15.08831838 48829,6917.905,95.438,541.383,538.158,0.0
50837.0,STARLINK-3318,PAYLOAD,2022-11-23 06:37:38,15.08835804,0.0002352,53.2162,166.9828,45.2261,314.8922,0.00014636,2.042e-05,0.0,0 STARLINK-3318,1 50837U 22001AL  22327.27614191  .00002042  00000-0  14636-3 0  9996,2 50837  53.2162 166.9828 0002352  45.2261 314.8922 15.08835804 48885,6917.893,95.438,541.385,538.131,0.0
50837.0,STARLINK-3318,PAYLOAD,2022-11-23 19:20:41,15.08864659,0.0002622,53.2163,164.6036,47.427,312.6944,0.00029821,4.464e-05,0.0,0 STARLINK-3318,1 50837U 22001AL  22327.80603648  .00004464  00000-0  29821-3 0  9992,2 50837  53.2163 164.6036 0002622  47.4270 312.6944 15.08864659 50160,6917.805,95.436,541.484,537.856,0.0
50837.0,STARLINK-3318,PAYLOAD,2022-11-24 06:28:25,15.08842769,0.0002607,53.2161,162.5218,47.4075,312.7136,9.4783e-05,1.22e-05,0.0,0 STARLINK-3318,1 50837U 22001AL  22328.26973495  .00001220  00000-0  94783-4 0  9990,2 50837  53.2161 162.5218 0002607  47.4075 312.7136 15.08842769 49039,6917.871999999999,95.437,541.54,537.933,0.0
50837.0,STARLINK-3318,PAYLOAD,2022-11-24 12:49:57,15.08845139,0.0002539,53.216,161.3323,46.8273,313.2931,9.5362e-05,1.23e-05,0.0,0 STARLINK-3318,1 50837U 22001AL  22328.53469231  .00001230  00000-0  95362-4 0  9993,2 50837  53.2160 161.3323 0002539  46.8273 313.2931 15.08845139 50270,6917.865,95.437,541.486,537.9730000000002,0.0
50837.0,STARLINK-3318,PAYLOAD,2022-11-24 19:11:29,15.08847713,0.0002482,53.2156,160.143,46.3627,313.7571,7.5871e-05,9.2e-06,0.0,0 STARLINK-3318,1 50837U 22001AL  22328.79964984  .00000920  00000-0  75871-4 0  9994,2 50837  53.2156 160.1430 0002482  46.3627 313.7571 15.08847713 49112,6917.857,95.437,541.439,538.005,0.0
50837.0,STARLINK-3318,PAYLOAD,2022-11-25 12:40:44,15.08841749,0.0002078,53.2144,156.8718,35.9213,324.1919,-2.2314e-05,-6.43e-06,0.0,0 STARLINK-3318,1 50837U 22001AL  22329.52829065 -.00000643  00000-0 -22314-4 0  9994,2 50837  53.2144 156.8718 0002078  35.9213 324.1919 15.08841749 49223,6917.875,95.437,541.178,538.303,0.0
50837.0,STARLINK-3318,PAYLOAD,2022-11-25 19:02:17,15.088466199999996,0.0002673,53.2164,155.6826,48.0274,312.0946,-0.00018994,-3.311e-05,0.0,0 STARLINK-3318,1 50837U 22001AL  22329.79325263 -.00003311  00000-0 -18994-3 0  9997,2 50837  53.2164 155.6826 0002673  48.0274 312.0946 15.08846620 50462,6917.86,95.437,541.5740000000002,537.876,0.0
50837.0,STARLINK-3318,PAYLOAD,2022-11-26 12:31:31,15.08833942,0.0002506,53.216,152.4116,44.4754,315.6439,1.6187e-05,-3.1e-07,0.0,0 STARLINK-3318,1 50837U 22001AL  22330.52189614 -.00000031  00000-0  16187-4 0  9996,2 50837  53.2160 152.4116 0002506  44.4754 315.6439 15.08833942 50574,6917.899,95.438,541.498,538.03,0.0
50837.0,STARLINK-3318,PAYLOAD,2022-11-26 18:53:04,15.08836116,0.0002548,53.2161,151.2221,45.5885,314.5315,2.0105e-05,3.2e-07,0.0,0 STARLINK-3318,1 50837U 22001AL  22330.78685559  .00000032  00000-0  20105-4 0  9998,2 50837  53.2161 151.2221 0002548  45.5885 314.5315 15.08836116 49410,6917.892,95.438,541.52,537.995,0.0
50837.0,STARLINK-3318,PAYLOAD,2022-11-27 12:22:19,15.08830443,0.0002552,53.2161,147.951,45.8413,314.2788,0.00011203,1.495e-05,0.0,0 STARLINK-3318,1 50837U 22001AL  22331.51549872  .00001495  00000-0  11203-3 0  9999,2 50837  53.2161 147.9510 0002552  45.8413 314.2788 15.08830443 49528,6917.91,95.438,541.54,538.009,0.0
50837.0,STARLINK-3318,PAYLOAD,2022-11-27 18:43:51,15.08832959,0.0002562,53.2161,146.7615,46.3741,313.7464,0.00012556,1.7100000000000002e-05,0.0,0 STARLINK-3318,1 50837U 22001AL  22331.78045846  .00001710  00000-0  12556-3 0  9992,2 50837  53.2161 146.7615 0002562  46.3741 313.7464 15.08832959 49565,6917.901999999999,95.438,541.539,537.995,0.0
50837.0,STARLINK-3318,PAYLOAD,2022-11-27 21:54:37,15.08836112,0.0002574,53.2162,146.1667,46.5007,313.6199,0.00013547,1.868e-05,0.0,0 STARLINK-3318,1 50837U 22001AL  22331.91293771  .00001868  00000-0  13547-3 0  9994,2 50837  53.2162 146.1667 0002574  46.5007 313.6199 15.08836112 50782,6917.892,95.438,541.538,537.977,0.0
50837.0,STARLINK-3318,PAYLOAD,2022-11-28 12:13:05,15.08841118,0.000259,53.2162,143.4903,47.3606,312.7604,0.00013358,1.838e-05,0.0,0 STARLINK-3318,1 50837U 22001AL  22332.50909665  .00001838  00000-0  13358-3 0  9993,2 50837  53.2162 143.4903 0002590  47.3606 312.7604 15.08841118 49676,6917.877,95.437,541.534,537.95,0.0
50837.0,STARLINK-3318,PAYLOAD,2022-11-29 04:06:58,15.08831158,0.0002578,53.2159,140.5165,46.56,313.5606,3.4502e-05,2.61e-06,0.0,0 STARLINK-3318,1 50837U 22001AL  22333.17150737  .00000261  00000-0  34502-4 0  9999,2 50837  53.2159 140.5165 0002578  46.5600 313.5606 15.08831158 50970,6917.906999999997,95.438,541.556,537.989,0.0
50837.0,STARLINK-3318,PAYLOAD,2022-11-29 12:03:54,15.08833111,0.0002586,53.2164,139.0298,47.8695,312.2516,1.6836e-05,-2.1e-07,0.0,0 STARLINK-3318,1 50837U 22001AL  22333.50270847 -.00000021  00000-0  16836-4 0  9996,2 50837  53.2164 139.0298 0002586  47.8695 312.2516 15.08833111 49822,6917.901,95.438,541.555,537.977,0.0
50837.0,STARLINK-3318,PAYLOAD,2022-11-30 03:57:45,15.08836072,0.0002647,53.2158,136.0564,48.9628,311.1593,9.1241e-06,-1.43e-06,0.0,0 STARLINK-3318,1 50837U 22001AL  22334.16510484 -.00000143  00000-0  91241-5 0  9992,2 50837  53.2158 136.0564 0002647  48.9628 311.1593 15.08836072 51122,6917.892,95.438,541.589,537.9259999999998,0.0
50837.0,STARLINK-3318,PAYLOAD,2022-11-30 11:54:40,15.08838397,0.0002644,53.2158,134.5693,48.948,311.1740000000001,3.5167e-05,2.71e-06,0.0,0 STARLINK-3318,1 50837U 22001AL  22334.49630481  .00000271  00000-0  35167-4 0  9993,2 50837  53.2158 134.5693 0002644  48.9480 311.1740 15.08838397 49977,6917.885,95.438,541.5790000000002,537.9209999999998,0.0
50837.0,STARLINK-3318,PAYLOAD,2022-11-30 19:51:36,15.08840193,0.0002673,53.2154,133.0823,50.9005,309.2225,0.00011684,1.572e-05,0.0,0 STARLINK-3318,1 50837U 22001AL  22334.82750502  .00001572  00000-0  11684-3 0  9999,2 50837  53.2154 133.0823 0002673  50.9005 309.2225 15.08840193 50021,6917.88,95.438,541.594,537.896,0.0
50837.0,STARLINK-3318,PAYLOAD,2022-12-01 13:20:50,15.08846718,0.0002628,53.2159,129.8113,50.2251,309.8973,0.00026715,3.967e-05,0.0,0 STARLINK-3318,1 50837U 22001AL  22335.55614281  .00003967  00000-0  26715-3 0  9994,2 50837  53.2159 129.8113 0002628  50.2251 309.8973 15.08846718 50134,6917.86,95.437,541.543,537.9069999999998,0.0
50837.0,STARLINK-3318,PAYLOAD,2022-12-01 19:42:23,15.08852604,0.0002662,53.2157,128.6221,50.5997,309.5231,0.00033363,5.027e-05,0.0,0 STARLINK-3318,1 50837U 22001AL  22335.82110012  .00005027  00000-0  33363-3 0  9993,2 50837  53.2157 128.6221 0002662  50.5997 309.5231 15.08852604 51379,6917.842,95.437,541.548,537.865,0.0
